CCSDS_OMM_VERS = 2.0
CREATION_DATE  = 
ORIGINATOR     = 

OBJECT_NAME    = COSMOS 2058
OBJECT_ID      = 1990-010A
CENTER_NAME    = EARTH
REF_FRAME      = TEME
TIME_SYSTEM    = UTC
MEAN_ELEMENT_THEORY = SGP/SGP4

EPOCH          = 2026-03-09T10:47:18.236832
MEAN_MOTION    = 15.11318921
ECCENTRICITY   = .0009375
INCLINATION    = 82.4670
RA_OF_ASC_NODE = 47.6646
ARG_OF_PERICENTER = 345.0233
MEAN_ANOMALY   = 15.0718

EPHEMERIS_TYPE = 0
CLASSIFICATION_TYPE = U
NORAD_CAT_ID   = 20465
ELEMENT_SET_NO = 999
REV_AT_EPOCH   = 94220
BSTAR          = .29631E-3
MEAN_MOTION_DOT = .5023E-4
MEAN_MOTION_DDOT = 0

CCSDS_OMM_VERS = 2.0
CREATION_DATE  = 
ORIGINATOR     = 

OBJECT_NAME    = SL-14 R/B
OBJECT_ID      = 1990-010B
CENTER_NAME    = EARTH
REF_FRAME      = TEME
TIME_SYSTEM    = UTC
MEAN_ELEMENT_THEORY = SGP/SGP4

EPOCH          = 2026-03-09T13:14:53.219904
MEAN_MOTION    = 14.83568636
ECCENTRICITY   = .001854
INCLINATION    = 82.4987
RA_OF_ASC_NODE = 267.5182
ARG_OF_PERICENTER = 302.8580
MEAN_ANOMALY   = 57.0850

EPHEMERIS_TYPE = 0
CLASSIFICATION_TYPE = U
NORAD_CAT_ID   = 20466
ELEMENT_SET_NO = 999
REV_AT_EPOCH   = 92846
BSTAR          = .59899E-4
MEAN_MOTION_DOT = .518E-5
MEAN_MOTION_DDOT = 0

CCSDS_OMM_VERS = 2.0
CREATION_DATE  = 
ORIGINATOR     = 

OBJECT_NAME    = SL-14 R/B
OBJECT_ID      = 1990-018B
CENTER_NAME    = EARTH
REF_FRAME      = TEME
TIME_SYSTEM    = UTC
MEAN_ELEMENT_THEORY = SGP/SGP4

EPOCH          = 2026-03-09T12:03:10.669248
MEAN_MOTION    = 14.82144727
ECCENTRICITY   = .0017677
INCLINATION    = 82.5202
RA_OF_ASC_NODE = 223.2647
ARG_OF_PERICENTER = 92.6107
MEAN_ANOMALY   = 267.7131

EPHEMERIS_TYPE = 0
CLASSIFICATION_TYPE = U
NORAD_CAT_ID   = 20511
ELEMENT_SET_NO = 999
REV_AT_EPOCH   = 92255
BSTAR          = .83952E-4
MEAN_MOTION_DOT = .693E-5
MEAN_MOTION_DDOT = 0

CCSDS_OMM_VERS = 2.0
CREATION_DATE  = 
ORIGINATOR     = 

OBJECT_NAME    = HST
OBJECT_ID      = 1990-037B
CENTER_NAME    = EARTH
REF_FRAME      = TEME
TIME_SYSTEM    = UTC
MEAN_ELEMENT_THEORY = SGP/SGP4

EPOCH          = 2026-03-08T01:12:43.887744
MEAN_MOTION    = 15.29454135
ECCENTRICITY   = .00017979
INCLINATION    = 28.4714
RA_OF_ASC_NODE = 51.1800
ARG_OF_PERICENTER = 110.1029
MEAN_ANOMALY   = 249.9760

EPHEMERIS_TYPE = 0
CLASSIFICATION_TYPE = U
NORAD_CAT_ID   = 20580
ELEMENT_SET_NO = 999
REV_AT_EPOCH   = 77306
BSTAR          = .36739108E-3
MEAN_MOTION_DOT = .11037E-3
MEAN_MOTION_DDOT = 0

CCSDS_OMM_VERS = 2.0
CREATION_DATE  = 
ORIGINATOR     = 

OBJECT_NAME    = SL-16 R/B
OBJECT_ID      = 1990-046B
CENTER_NAME    = EARTH
REF_FRAME      = TEME
TIME_SYSTEM    = UTC
MEAN_ELEMENT_THEORY = SGP/SGP4

EPOCH          = 2026-03-08T22:04:11.686080
MEAN_MOTION    = 14.15012682
ECCENTRICITY   = .00162354
INCLINATION    = 70.9989
RA_OF_ASC_NODE = 299.5324
ARG_OF_PERICENTER = 300.6945
MEAN_ANOMALY   = 59.2577

EPHEMERIS_TYPE = 0
CLASSIFICATION_TYPE = U
NORAD_CAT_ID   = 20625
ELEMENT_SET_NO = 999
REV_AT_EPOCH   = 84828
BSTAR          = -.10050682E-3
MEAN_MOTION_DOT = -.243E-5
MEAN_MOTION_DDOT = 0

CCSDS_OMM_VERS = 2.0
CREATION_DATE  = 
ORIGINATOR     = 

OBJECT_NAME    = COSMOS 2084
OBJECT_ID      = 1990-055A
CENTER_NAME    = EARTH
REF_FRAME      = TEME
TIME_SYSTEM    = UTC
MEAN_ELEMENT_THEORY = SGP/SGP4

EPOCH          = 2026-03-09T04:34:31.852416
MEAN_MOTION    = 15.05648060
ECCENTRICITY   = .0017129
INCLINATION    = 62.7921
RA_OF_ASC_NODE = 337.2804
ARG_OF_PERICENTER = 189.8801
MEAN_ANOMALY   = 170.1965

EPHEMERIS_TYPE = 0
CLASSIFICATION_TYPE = U
NORAD_CAT_ID   = 20663
ELEMENT_SET_NO = 999
REV_AT_EPOCH   = 93624
BSTAR          = .23828E-3
MEAN_MOTION_DOT = .3266E-4
MEAN_MOTION_DDOT = 0

CCSDS_OMM_VERS = 2.0
CREATION_DATE  = 
ORIGINATOR     = 

OBJECT_NAME    = SL-6 R/B(2)
OBJECT_ID      = 1990-055D
CENTER_NAME    = EARTH
REF_FRAME      = TEME
TIME_SYSTEM    = UTC
MEAN_ELEMENT_THEORY = SGP/SGP4

EPOCH          = 2026-03-08T23:21:14.661504
MEAN_MOTION    = 15.03590689
ECCENTRICITY   = .00246323
INCLINATION    = 62.7824
RA_OF_ASC_NODE = 256.2874
ARG_OF_PERICENTER = 346.9013
MEAN_ANOMALY   = 13.1443

EPHEMERIS_TYPE = 0
CLASSIFICATION_TYPE = U
NORAD_CAT_ID   = 20666
ELEMENT_SET_NO = 999
REV_AT_EPOCH   = 93808
BSTAR          = .21956974E-3
MEAN_MOTION_DOT = .2834E-4
MEAN_MOTION_DDOT = 0

CCSDS_OMM_VERS = 2.0
CREATION_DATE  = 
ORIGINATOR     = 

OBJECT_NAME    = SL-8 R/B
OBJECT_ID      = 1990-078B
CENTER_NAME    = EARTH
REF_FRAME      = TEME
TIME_SYSTEM    = UTC
MEAN_ELEMENT_THEORY = SGP/SGP4

EPOCH          = 2026-03-09T12:12:08.491968
MEAN_MOTION    = 14.89052086
ECCENTRICITY   = .0362329
INCLINATION    = 82.9004
RA_OF_ASC_NODE = 251.4739
ARG_OF_PERICENTER = 14.6106
MEAN_ANOMALY   = 346.5253

EPHEMERIS_TYPE = 0
CLASSIFICATION_TYPE = U
NORAD_CAT_ID   = 20775
ELEMENT_SET_NO = 999
REV_AT_EPOCH   = 80927
BSTAR          = .5013E-3
MEAN_MOTION_DOT = .1703E-3
MEAN_MOTION_DDOT = 0

CCSDS_OMM_VERS = 2.0
CREATION_DATE  = 
ORIGINATOR     = 

OBJECT_NAME    = SL-8 R/B
OBJECT_ID      = 1991-006B
CENTER_NAME    = EARTH
REF_FRAME      = TEME
TIME_SYSTEM    = UTC
MEAN_ELEMENT_THEORY = SGP/SGP4

EPOCH          = 2026-03-09T09:47:56.820192
MEAN_MOTION    = 13.77494152
ECCENTRICITY   = .0023099
INCLINATION    = 82.9466
RA_OF_ASC_NODE = 170.2551
ARG_OF_PERICENTER = 39.0836
MEAN_ANOMALY   = 31.3188

EPHEMERIS_TYPE = 0
CLASSIFICATION_TYPE = U
NORAD_CAT_ID   = 21088
ELEMENT_SET_NO = 999
REV_AT_EPOCH   = 76403
BSTAR          = .63218E-4
MEAN_MOTION_DOT = .78E-6
MEAN_MOTION_DDOT = 0

CCSDS_OMM_VERS = 2.0
CREATION_DATE  = 
ORIGINATOR     = 

OBJECT_NAME    = OKEAN-3
OBJECT_ID      = 1991-039A
CENTER_NAME    = EARTH
REF_FRAME      = TEME
TIME_SYSTEM    = UTC
MEAN_ELEMENT_THEORY = SGP/SGP4

EPOCH          = 2026-03-09T05:07:30.567936
MEAN_MOTION    = 15.04799868
ECCENTRICITY   = .0013992
INCLINATION    = 82.5189
RA_OF_ASC_NODE = 337.3047
ARG_OF_PERICENTER = 340.1382
MEAN_ANOMALY   = 19.9298

EPHEMERIS_TYPE = 0
CLASSIFICATION_TYPE = U
NORAD_CAT_ID   = 21397
ELEMENT_SET_NO = 999
REV_AT_EPOCH   = 86496
BSTAR          = .31542E-3
MEAN_MOTION_DOT = .4486E-4
MEAN_MOTION_DDOT = 0

CCSDS_OMM_VERS = 2.0
CREATION_DATE  = 
ORIGINATOR     = 

OBJECT_NAME    = COSMOS 2151
OBJECT_ID      = 1991-042A
CENTER_NAME    = EARTH
REF_FRAME      = TEME
TIME_SYSTEM    = UTC
MEAN_ELEMENT_THEORY = SGP/SGP4

EPOCH          = 2026-03-09T13:11:54.725280
MEAN_MOTION    = 15.00103431
ECCENTRICITY   = .0014
INCLINATION    = 82.4931
RA_OF_ASC_NODE = 83.8110
ARG_OF_PERICENTER = 64.3160
MEAN_ANOMALY   = 295.9508

EPHEMERIS_TYPE = 0
CLASSIFICATION_TYPE = U
NORAD_CAT_ID   = 21422
ELEMENT_SET_NO = 999
REV_AT_EPOCH   = 86317
BSTAR          = .14779E-3
MEAN_MOTION_DOT = .1872E-4
MEAN_MOTION_DDOT = 0

CCSDS_OMM_VERS = 2.0
CREATION_DATE  = 
ORIGINATOR     = 

OBJECT_NAME    = SL-14 R/B
OBJECT_ID      = 1991-042B
CENTER_NAME    = EARTH
REF_FRAME      = TEME
TIME_SYSTEM    = UTC
MEAN_ELEMENT_THEORY = SGP/SGP4

EPOCH          = 2026-03-09T11:42:11.978496
MEAN_MOTION    = 14.81829386
ECCENTRICITY   = .0015771
INCLINATION    = 82.4922
RA_OF_ASC_NODE = 220.3717
ARG_OF_PERICENTER = 239.3387
MEAN_ANOMALY   = 120.6273

EPHEMERIS_TYPE = 0
CLASSIFICATION_TYPE = U
NORAD_CAT_ID   = 21423
ELEMENT_SET_NO = 999
REV_AT_EPOCH   = 85304
BSTAR          = .805E-4
MEAN_MOTION_DOT = .66E-5
MEAN_MOTION_DDOT = 0

